[{"OBJECT_NAME":"GOSAT-GW (IBUKI GW)","OBJECT_ID":"2025-141A","EPOCH":"2026-03-06T00:45:39.157344","MEAN_MOTION":14.67569112,"ECCENTRICITY":0.00014325,"INCLINATION":98.0504,"RA_OF_ASC_NODE":4.0681,"ARG_OF_PERICENTER":83.7436,"MEAN_ANOMALY":276.3932,"EPHEMERIS_TYPE":0,"CLASSIFICATION_TYPE":"U","NORAD_CAT_ID":64694,"ELEMENT_SET_NO":999,"REV_AT_EPOCH":3671,"BSTAR":0.00025031569,"MEAN_MOTION_DOT":1.373e-5,"MEAN_MOTION_DDOT":0},{"OBJECT_NAME":"NOAA 17 DEB","OBJECT_ID":"2002-032CW","EPOCH":"2026-03-08T05:08:57.550272","MEAN_MOTION":14.68303688,"ECCENTRICITY":0.00020811,"INCLINATION":98.718,"RA_OF_ASC_NODE":64.121,"ARG_OF_PERICENTER":173.959,"MEAN_ANOMALY":186.1639,"EPHEMERIS_TYPE":0,"CLASSIFICATION_TYPE":"U","NORAD_CAT_ID":48761,"ELEMENT_SET_NO":999,"REV_AT_EPOCH":25825,"BSTAR":0.0049952655,"MEAN_MOTION_DOT":0.00028891,"MEAN_MOTION_DDOT":0}]
